NORAD_CAT_ID,OBJECT_NAME,OBJECT_TYPE,EPOCH,MEAN_MOTION,ECCENTRICITY,INCLINATION,RA_OF_ASC_NODE,ARG_OF_PERICENTER,MEAN_ANOMALY,BSTAR,MEAN_MOTION_DOT,MEAN_MOTION_DDOT,TLE_LINE0,TLE_LINE1,TLE_LINE2,SEMIMAJOR_AXIS,PERIOD,APOGEE,PERIGEE,DECAYED
52606.0,STARLINK-3928,PAYLOAD,2022-08-17 12:00:00,15.08862651,0.0001531999999999,53.2179,355.8862,56.3471,347.3757,-0.002623,-0.00041817,0.0,0 STARLINK-3928,1 52606U 22052J   22229.50001157 -.00041817  00000-0 -26230-2 0  9994,2 52606  53.2179 355.8862 0001532  56.3471 347.3757 15.08862651 14948,6917.811,95.436,540.736,538.616,0.0
52606.0,STARLINK-3928,PAYLOAD,2022-08-17 16:00:00,15.0883661,0.0001665999999999,53.2179,355.1388,52.9981,176.5337,-0.00025715,-4.378e-05,0.0,0 STARLINK-3928,1 52606U 22052J   22229.66667824 -.00004378  00000-0 -25715-3 0  9999,2 52606  53.2179 355.1388 0001666  52.9981 176.5337 15.08836610  1308,6917.891,95.438,540.908,538.6030000000002,0.0
52606.0,STARLINK-3928,PAYLOAD,2022-08-18 06:00:02,15.08812255,0.0001584,53.218,352.5183,59.7098,100.1798,0.0031774999999999,0.00050607,0.0,0 STARLINK-3928,1 52606U 22052J   22230.25002315  .00050607  00000-0  31775-2 0  9990,2 52606  53.2180 352.5183 0001584  59.7098 100.1798 15.08812255 15057,6917.965,95.439,540.9259999999998,538.734,0.0
52606.0,STARLINK-3928,PAYLOAD,2022-08-18 14:00:01,15.08848952,0.0001724,53.2181,351.0236,54.8192,116.592,-0.00037057,-6.182e-05,0.0,0 STARLINK-3928,1 52606U 22052J   22230.58334491 -.00006182  00000-0 -37057-3 0  9990,2 52606  53.2181 351.0236 0001724  54.8192 116.5920 15.08848952  1302,6917.853,95.437,540.911,538.525,0.0
52606.0,STARLINK-3928,PAYLOAD,2022-08-18 20:00:01,15.08848667,0.0001737,53.218,349.9017,49.8169,40.2961,0.00073308,0.00011401,0.0,0 STARLINK-3928,1 52606U 22052J   22230.83334491  .00011401  00000-0  73308-3 0  9995,2 52606  53.2180 349.9017 0001737  49.8169  40.2961 15.08848667 15144,6917.854,95.437,540.9209999999998,538.5169999999998,0.0
52606.0,STARLINK-3928,PAYLOAD,2022-08-18 22:00:00,15.08876786,0.0001708,53.218,349.5274,51.6324,131.3755,-0.0032514,-0.00051715,0.0,0 STARLINK-3928,1 52606U 22052J   22230.91667824 -.00051715  00000-0 -32514-2 0  9990,2 52606  53.2180 349.5274 0001708  51.6324 131.3755 15.08876786  1306,6917.768,95.435,540.815,538.451,0.0
52606.0,STARLINK-3928,PAYLOAD,2022-08-19 12:00:00,15.08833952,0.000166,53.2183,346.9081,56.6618,56.6583,-0.001314,-0.00021136,0.0,0 STARLINK-3928,1 52606U 22052J   22231.50001157 -.00021136  00000-0 -13140-2 0  9995,2 52606  53.2183 346.9081 0001660  56.6618  56.6583 15.08833952 15248,6917.899,95.438,540.9119999999998,538.616,0.0
52606.0,STARLINK-3928,PAYLOAD,2022-08-19 14:00:01,15.088246,0.0001720999999999,53.2182,346.5345,54.6634,151.5543,-0.00030313,-5.107e-05,0.0,0 STARLINK-3928,1 52606U 22052J   22231.58334491 -.00005107  00000-0 -30313-3 0  9995,2 52606  53.2182 346.5345 0001721  54.6634 151.5543 15.08824600  1303,6917.927,95.439,540.9830000000002,538.602,0.0
52606.0,STARLINK-3928,PAYLOAD,2022-08-19 22:00:00,15.08850446,0.0001662,53.2179,345.0379,52.7873,164.9949,-0.0033428,-0.00053112,0.0,0 STARLINK-3928,1 52606U 22052J   22231.91667824 -.00053112  00000-0 -33428-2 0  9999,2 52606  53.2179 345.0379 0001662  52.7873 164.9949 15.08850446  1303,6917.848000000001,95.437,540.863,538.564,0.0
52606.0,STARLINK-3928,PAYLOAD,2022-08-20 12:00:00,15.08827112,0.0001548,53.2181,342.4193,54.646,93.3919,-0.0013066,-0.00021015,0.0,0 STARLINK-3928,1 52606U 22052J   22232.50001157 -.00021015  00000-0 -13066-2 0  9999,2 52606  53.2181 342.4193 0001548  54.6460  93.3919 15.08827112 15397,6917.92,95.438,540.856,538.714,0.0
52606.0,STARLINK-3928,PAYLOAD,2022-08-20 14:00:01,15.08817473,0.0001606,53.218,342.0457,52.5235,188.41,-0.00021805,-3.754e-05,0.0,0 STARLINK-3928,1 52606U 22052J   22232.58334491 -.00003754  00000-0 -21805-3 0  9998,2 52606  53.2180 342.0457 0001606  52.5235 188.4100 15.08817473  1300,6917.949000000001,95.439,540.925,538.703,0.0
52606.0,STARLINK-3928,PAYLOAD,2022-08-20 22:00:00,15.08838369,0.0001557,53.2177,340.5489,51.5914,200.9046,-0.0015469,-0.00024821,0.0,0 STARLINK-3928,1 52606U 22052J   22232.91667824 -.00024821  00000-0 -15469-2 0  9990,2 52606  53.2177 340.5489 0001557  51.5914 200.9046 15.08838369  1308,6917.885,95.438,540.827,538.673,0.0
52606.0,STARLINK-3928,PAYLOAD,2022-08-21 04:00:00,15.08802891,0.0001421,53.2177,339.4256,57.6092,113.5777,0.0026701,0.00042419,0.0,0 STARLINK-3928,1 52606U 22052J   22233.16667824  .00042419  00000-0  26701-2 0  9990,2 52606  53.2177 339.4256 0001421  57.6092 113.5777 15.08802891 15497,6917.994000000002,95.44,540.842,538.876,0.0
52606.0,STARLINK-3928,PAYLOAD,2022-08-21 14:00:01,15.08830285,0.0001592,53.2176,337.5569,53.1745,222.4819,-0.00018182,-3.18e-05,0.0,0 STARLINK-3928,1 52606U 22052J   22233.58334491 -.00003180  00000-0 -18182-3 0  9996,2 52606  53.2176 337.5569 0001592  53.1745 222.4819 15.08830285  1307,6917.91,95.438,540.876,538.674,0.0
52606.0,STARLINK-3928,PAYLOAD,2022-08-21 20:00:01,15.08836471,0.0001585,53.2173,336.4345,50.5667,143.776,0.00039314,5.974e-05,0.0,0 STARLINK-3928,1 52606U 22052J   22233.83334491  .00005974  00000-0  39314-3 0  9995,2 52606  53.2173 336.4345 0001585  50.5667 143.7760 15.08836471 15599,6917.891,95.438,540.8530000000002,538.66,0.0
52606.0,STARLINK-3928,PAYLOAD,2022-08-21 22:00:00,15.08853767,0.0001534,53.2173,336.0599,52.214,235.0221,-0.0019421,-0.00031075,0.0,0 STARLINK-3928,1 52606U 22052J   22233.91667824 -.00031075  00000-0 -19421-2 0  9992,2 52606  53.2173 336.0599 0001534  52.2140 235.0221 15.08853767  1303,6917.8380000000025,95.437,540.765,538.6419999999998,0.0
52606.0,STARLINK-3928,PAYLOAD,2022-08-22 12:00:00,15.08853595,0.0001553,53.2174,333.4417,54.659,162.8742,-0.001125,-0.00018154,0.0,0 STARLINK-3928,1 52606U 22052J   22234.50001157 -.00018154  00000-0 -11250-2 0  9994,2 52606  53.2174 333.4417 0001553  54.6590 162.8742 15.08853595  1304,6917.839,95.437,540.778,538.629,0.0
52606.0,STARLINK-3928,PAYLOAD,2022-08-22 22:00:00,15.08881653,0.0001498,53.2171,331.5709,50.6181,271.4141,-0.0046308,-0.00073321,0.0,0 STARLINK-3928,1 52606U 22052J   22234.91667824 -.00073321  00000-0 -46308-2 0  9997,2 52606  53.2171 331.5709 0001498  50.6181 271.4141 15.08881653  1300,6917.753000000002,95.435,540.654,538.582,0.0
52606.0,STARLINK-3928,PAYLOAD,2022-08-23 04:00:00,15.08816173,0.0001384,53.2171,330.4474,55.4431,185.3106,0.0016588,0.00026193,0.0,0 STARLINK-3928,1 52606U 22052J   22235.16667824  .00026193  00000-0  16588-2 0  9995,2 52606  53.2171 330.4474 0001384  55.4431 185.3106 15.08816173 15801,6917.953,95.439,540.776,538.861,0.0
52606.0,STARLINK-3928,PAYLOAD,2022-08-23 14:00:01,15.08824937,0.000157,53.2174,328.579,49.2235,296.0042,0.00022051,3.222e-05,0.0,0 STARLINK-3928,1 52606U 22052J   22235.58334491  .00003222  00000-0  22051-3 0  9993,2 52606  53.2174 328.5790 0001570  49.2235 296.0042 15.08824937  1309,6917.926,95.439,540.878,538.705,0.0
52606.0,STARLINK-3928,PAYLOAD,2022-08-23 20:00:01,15.08829961,0.0001574,53.2172,327.4565,44.7089,219.1662,0.00064065,9.92e-05,0.0,0 STARLINK-3928,1 52606U 22052J   22235.83334491  .00009920  00000-0  64065-3 0  9993,2 52606  53.2172 327.4565 0001574  44.7089 219.1662 15.08829961 15903,6917.911,95.438,540.865,538.687,0.0
52606.0,STARLINK-3928,PAYLOAD,2022-08-23 22:00:01,15.08848,0.0001524,53.2173,327.0818,44.9852,311.8441,-0.0015126,-0.00024286,0.0,0 STARLINK-3928,1 52606U 22052J   22235.91668981 -.00024286  00000-0 -15126-2 0  9993,2 52606  53.2173 327.0818 0001524  44.9852 311.8441 15.08848000  1305,6917.856,95.437,540.775,538.6669999999998,0.0
52606.0,STARLINK-3928,PAYLOAD,2022-08-24 14:00:01,15.08836505,0.000168,53.2176,324.0902,45.4738,334.4836,0.00046641,7.142e-05,0.0,0 STARLINK-3928,1 52606U 22052J   22236.58334491  .00007142  00000-0  46641-3 0  9990,2 52606  53.2176 324.0902 0001680  45.4738 334.4836 15.08836505  1307,6917.891,95.438,540.918,538.594,0.0
52606.0,STARLINK-3928,PAYLOAD,2022-08-24 22:00:00,15.0886288,0.0001601,53.2176,322.5929,45.1341,346.4163,-0.0019851,-0.00031762,0.0,0 STARLINK-3928,1 52606U 22052J   22236.91667824 -.00031762  00000-0 -19851-2 0  9995,2 52606  53.2176 322.5929 0001601  45.1341 346.4163 15.08862880  1300,6917.81,95.436,540.783,538.568,0.0
52606.0,STARLINK-3928,PAYLOAD,2022-08-25 04:00:00,15.08829941,0.0001518,53.2177,321.4708,50.07,260.1924,0.0026625999999999,0.0004233,0.0,0 STARLINK-3928,1 52606U 22052J   22237.16667824  .00042330  00000-0  26626-2 0  9992,2 52606  53.2177 321.4708 0001518  50.0700 260.1924 15.08829941 16107,6917.911,95.438,540.826,538.726,0.0
52606.0,STARLINK-3928,PAYLOAD,2022-08-25 14:00:01,15.08846779,0.0001744,53.2179,319.6013,44.6393,10.1349,0.00085474,0.00013344,0.0,0 STARLINK-3928,1 52606U 22052J   22237.58334491  .00013344  00000-0  85474-3 0  9999,2 52606  53.2179 319.6013 0001744  44.6393  10.1349 15.08846779  1303,6917.86,95.437,540.931,538.518,0.0
52606.0,STARLINK-3928,PAYLOAD,2022-08-25 18:00:00,15.08853455,0.0001717,53.2177,318.8531,42.0693,198.508,0.0010242,0.00016056,0.0,0 STARLINK-3928,1 52606U 22052J   22237.75001157  .00016056  00000-0  10242-2 0  9991,2 52606  53.2177 318.8531 0001717  42.0693 198.5080 15.08853455 16197,6917.839,95.437,540.8919999999998,538.516,0.0
52606.0,STARLINK-3928,PAYLOAD,2022-08-25 22:00:00,15.08882812,0.0001618,53.218,318.1039,44.2789,22.1017,-0.003551,-0.00056426,0.0,0 STARLINK-3928,1 52606U 22052J   22237.91667824 -.00056426  00000-0 -35510-2 0  9990,2 52606  53.2180 318.1039 0001618  44.2789  22.1017 15.08882812  1305,6917.75,95.435,540.734,538.495,0.0
52606.0,STARLINK-3928,PAYLOAD,2022-08-26 04:00:01,15.08836039,0.0001501999999999,53.218,316.9808,48.0091,297.1591,0.00085106,0.00013281,0.0,0 STARLINK-3928,1 52606U 22052J   22238.16668981  .00013281  00000-0  85106-3 0  9990,2 52606  53.2180 316.9808 0001502  48.0091 297.1591 15.08836039 16256,6917.892,95.438,540.797,538.7180000000002,0.0
